[{"OBJECT_NAME":"GPS BIIR-2  (PRN 13)","OBJECT_ID":"1997-035A","EPOCH":"2026-03-03T00:05:59.925984","MEAN_MOTION":2.00563944,"ECCENTRICITY":0.0097907,"INCLINATION":55.9346,"RA_OF_ASC_NODE":102.7259,"ARG_OF_PERICENTER":56.2756,"MEAN_ANOMALY":304.7352,"EPHEMERIS_TYPE":0,"CLASSIFICATION_TYPE":"U","NORAD_CAT_ID":24876,"ELEMENT_SET_NO":999,"REV_AT_EPOCH":20982,"BSTAR":0,"MEAN_MOTION_DOT":2.4e-7,"MEAN_MOTION_DDOT":0},{"OBJECT_NAME":"GPS BIIR-5  (PRN 22)","OBJECT_ID":"2000-040A","EPOCH":"2026-03-03T02:14:20.539392","MEAN_MOTION":2.00568878,"ECCENTRICITY":0.0122735,"INCLINATION":54.8758,"RA_OF_ASC_NODE":219.3737,"ARG_OF_PERICENTER":302.5262,"MEAN_ANOMALY":55.9765,"EPHEMERIS_TYPE":0,"CLASSIFICATION_TYPE":"U","NORAD_CAT_ID":26407,"ELEMENT_SET_NO":999,"REV_AT_EPOCH":18781,"BSTAR":0,"MEAN_MOTION_DOT":-6.0e-8,"MEAN_MOTION_DDOT":0},{"OBJECT_NAME":"GPS BIIR-8  (PRN 16)","OBJECT_ID":"2003-005A","EPOCH":"2026-03-02T15:51:50.950368","MEAN_MOTION":2.00566327,"ECCENTRICITY":0.01487333,"INCLINATION":54.9077,"RA_OF_ASC_NODE":219.1988,"ARG_OF_PERICENTER":52.7044,"MEAN_ANOMALY":129.581,"EPHEMERIS_TYPE":0,"CLASSIFICATION_TYPE":"U","NORAD_CAT_ID":27663,"ELEMENT_SET_NO":999,"REV_AT_EPOCH":16917,"BSTAR":0,"MEAN_MOTION_DOT":-5.0e-8,"MEAN_MOTION_DDOT":0},{"OBJECT_NAME":"GPS BIIR-11 (PRN 19)","OBJECT_ID":"2004-009A","EPOCH":"2026-03-02T22:48:43.251840","MEAN_MOTION":2.0055811,"ECCENTRICITY":0.0110897,"INCLINATION":54.9168,"RA_OF_ASC_NODE":279.9786,"ARG_OF_PERICENTER":169.0266,"MEAN_ANOMALY":18.2442,"EPHEMERIS_TYPE":0,"CLASSIFICATION_TYPE":"U","NORAD_CAT_ID":28190,"ELEMENT_SET_NO":999,"REV_AT_EPOCH":16081,"BSTAR":0,"MEAN_MOTION_DOT":-1.0e-7,"MEAN_MOTION_DDOT":0},{"OBJECT_NAME":"GPS BIIR-13 (PRN 02)","OBJECT_ID":"2004-045A","EPOCH":"2026-03-02T02:12:58.285728","MEAN_MOTION":2.00573214,"ECCENTRICITY":0.0170883,"INCLINATION":55.196,"RA_OF_ASC_NODE":329.2124,"ARG_OF_PERICENTER":312.7311,"MEAN_ANOMALY":38.2097,"EPHEMERIS_TYPE":0,"CLASSIFICATION_TYPE":"U","NORAD_CAT_ID":28474,"ELEMENT_SET_NO":999,"REV_AT_EPOCH":15627,"BSTAR":0,"MEAN_MOTION_DOT":-8.9e-7,"MEAN_MOTION_DDOT":0},{"OBJECT_NAME":"GPS BIIRM-1 (PRN 17)","OBJECT_ID":"2005-038A","EPOCH":"2026-03-02T08:19:20.265312","MEAN_MOTION":2.00573091,"ECCENTRICITY":0.01288568,"INCLINATION":54.9646,"RA_OF_ASC_NODE":277.4881,"ARG_OF_PERICENTER":295.3112,"MEAN_ANOMALY":199.7188,"EPHEMERIS_TYPE":0,"CLASSIFICATION_TYPE":"U","NORAD_CAT_ID":28874,"ELEMENT_SET_NO":999,"REV_AT_EPOCH":14969,"BSTAR":0,"MEAN_MOTION_DOT":-1.0e-8,"MEAN_MOTION_DDOT":0},{"OBJECT_NAME":"GPS BIIRM-2 (PRN 31)","OBJECT_ID":"2006-042A","EPOCH":"2026-03-02T21:14:36.680928","MEAN_MOTION":2.0057538,"ECCENTRICITY":0.010676,"INCLINATION":54.6983,"RA_OF_ASC_NODE":155.5604,"ARG_OF_PERICENTER":52.8721,"MEAN_ANOMALY":7.8976,"EPHEMERIS_TYPE":0,"CLASSIFICATION_TYPE":"U","NORAD_CAT_ID":29486,"ELEMENT_SET_NO":999,"REV_AT_EPOCH":14226,"BSTAR":0,"MEAN_MOTION_DOT":-9.0e-8,"MEAN_MOTION_DDOT":0},{"OBJECT_NAME":"GPS BIIRM-3 (PRN 12)","OBJECT_ID":"2006-052A","EPOCH":"2026-03-02T17:13:52.613184","MEAN_MOTION":2.00551488,"ECCENTRICITY":0.0087895,"INCLINATION":54.9578,"RA_OF_ASC_NODE":218.2238,"ARG_OF_PERICENTER":89.3335,"MEAN_ANOMALY":271.6249,"EPHEMERIS_TYPE":0,"CLASSIFICATION_TYPE":"U","NORAD_CAT_ID":29601,"ELEMENT_SET_NO":999,"REV_AT_EPOCH":14127,"BSTAR":0,"MEAN_MOTION_DOT":-6.0e-8,"MEAN_MOTION_DDOT":0},{"OBJECT_NAME":"GPS BIIRM-4 (PRN 15)","OBJECT_ID":"2007-047A","EPOCH":"2026-03-03T00:35:48.648768","MEAN_MOTION":2.00560768,"ECCENTRICITY":0.0163592,"INCLINATION":54.0146,"RA_OF_ASC_NODE":84.4404,"ARG_OF_PERICENTER":85.9452,"MEAN_ANOMALY":275.9877,"EPHEMERIS_TYPE":0,"CLASSIFICATION_TYPE":"U","NORAD_CAT_ID":32260,"ELEMENT_SET_NO":999,"REV_AT_EPOCH":13468,"BSTAR":0,"MEAN_MOTION_DOT":7.0e-8,"MEAN_MOTION_DDOT":0},{"OBJECT_NAME":"GPS BIIRM-5 (PRN 29)","OBJECT_ID":"2007-062A","EPOCH":"2026-03-03T02:06:28.913760","MEAN_MOTION":2.00553422,"ECCENTRICITY":0.0032895,"INCLINATION":55.1158,"RA_OF_ASC_NODE":278.4165,"ARG_OF_PERICENTER":160.6467,"MEAN_ANOMALY":12.9294,"EPHEMERIS_TYPE":0,"CLASSIFICATION_TYPE":"U","NORAD_CAT_ID":32384,"ELEMENT_SET_NO":999,"REV_AT_EPOCH":13338,"BSTAR":0,"MEAN_MOTION_DOT":-9.0e-8,"MEAN_MOTION_DDOT":0},{"OBJECT_NAME":"GPS BIIRM-6 (PRN 07)","OBJECT_ID":"2008-012A","EPOCH":"2026-03-02T22:38:10.376160","MEAN_MOTION":2.00569103,"ECCENTRICITY":0.0206885,"INCLINATION":54.4823,"RA_OF_ASC_NODE":154.1705,"ARG_OF_PERICENTER":246.1613,"MEAN_ANOMALY":111.6809,"EPHEMERIS_TYPE":0,"CLASSIFICATION_TYPE":"U","NORAD_CAT_ID":32711,"ELEMENT_SET_NO":999,"REV_AT_EPOCH":13162,"BSTAR":0,"MEAN_MOTION_DOT":-7.0e-8,"MEAN_MOTION_DDOT":0},{"OBJECT_NAME":"GPS BIIRM-8 (PRN 05)","OBJECT_ID":"2009-043A","EPOCH":"2026-03-02T22:25:29.777952","MEAN_MOTION":2.00560482,"ECCENTRICITY":0.0051678,"INCLINATION":56.1473,"RA_OF_ASC_NODE":31.6254,"ARG_OF_PERICENTER":80.7067,"MEAN_ANOMALY":288.9029,"EPHEMERIS_TYPE":0,"CLASSIFICATION_TYPE":"U","NORAD_CAT_ID":35752,"ELEMENT_SET_NO":999,"REV_AT_EPOCH":12123,"BSTAR":0,"MEAN_MOTION_DOT":-8.0e-7,"MEAN_MOTION_DDOT":0},{"OBJECT_NAME":"GPS BIIF-1  (PRN 25)","OBJECT_ID":"2010-022A","EPOCH":"2026-03-02T18:13:10.394112","MEAN_MOTION":2.00557144,"ECCENTRICITY":0.01273546,"INCLINATION":54.2892,"RA_OF_ASC_NODE":212.8472,"ARG_OF_PERICENTER":65.8685,"MEAN_ANOMALY":294.0033,"EPHEMERIS_TYPE":0,"CLASSIFICATION_TYPE":"U","NORAD_CAT_ID":36585,"ELEMENT_SET_NO":999,"REV_AT_EPOCH":11545,"BSTAR":0,"MEAN_MOTION_DOT":-1.1e-7,"MEAN_MOTION_DDOT":0},{"OBJECT_NAME":"GPS BIIF-3  (PRN 24)","OBJECT_ID":"2012-053A","EPOCH":"2026-03-01T15:00:43.413408","MEAN_MOTION":2.00565726,"ECCENTRICITY":0.01769104,"INCLINATION":53.5656,"RA_OF_ASC_NODE":148.0073,"ARG_OF_PERICENTER":64.7623,"MEAN_ANOMALY":297.0865,"EPHEMERIS_TYPE":0,"CLASSIFICATION_TYPE":"U","NORAD_CAT_ID":38833,"ELEMENT_SET_NO":999,"REV_AT_EPOCH":9728,"BSTAR":0,"MEAN_MOTION_DOT":-1.8e-7,"MEAN_MOTION_DDOT":0},{"OBJECT_NAME":"GPS BIIF-4  (PRN 27)","OBJECT_ID":"2013-023A","EPOCH":"2026-03-01T23:44:03.785280","MEAN_MOTION":2.00564153,"ECCENTRICITY":0.01415529,"INCLINATION":54.5878,"RA_OF_ASC_NODE":273.3391,"ARG_OF_PERICENTER":49.8819,"MEAN_ANOMALY":311.3944,"EPHEMERIS_TYPE":0,"CLASSIFICATION_TYPE":"U","NORAD_CAT_ID":39166,"ELEMENT_SET_NO":999,"REV_AT_EPOCH":9373,"BSTAR":0,"MEAN_MOTION_DOT":6.0e-8,"MEAN_MOTION_DDOT":0},{"OBJECT_NAME":"GPS BIIF-5  (PRN 30)","OBJECT_ID":"2014-008A","EPOCH":"2026-03-02T11:39:40.334400","MEAN_MOTION":2.00552925,"ECCENTRICITY":0.00822262,"INCLINATION":53.6376,"RA_OF_ASC_NODE":153.6733,"ARG_OF_PERICENTER":228.2234,"MEAN_ANOMALY":131.0919,"EPHEMERIS_TYPE":0,"CLASSIFICATION_TYPE":"U","NORAD_CAT_ID":39533,"ELEMENT_SET_NO":999,"REV_AT_EPOCH":8754,"BSTAR":0,"MEAN_MOTION_DOT":-1.3e-7,"MEAN_MOTION_DDOT":0},{"OBJECT_NAME":"GPS BIIF-6  (PRN 06)","OBJECT_ID":"2014-026A","EPOCH":"2026-03-02T18:20:19.276800","MEAN_MOTION":2.00568745,"ECCENTRICITY":0.0039889,"INCLINATION":56.5473,"RA_OF_ASC_NODE":335.6635,"ARG_OF_PERICENTER":324.4172,"MEAN_ANOMALY":35.3477,"EPHEMERIS_TYPE":0,"CLASSIFICATION_TYPE":"U","NORAD_CAT_ID":39741,"ELEMENT_SET_NO":999,"REV_AT_EPOCH":8640,"BSTAR":0,"MEAN_MOTION_DOT":-9.6e-7,"MEAN_MOTION_DDOT":0}]
